[{"OBJECT_NAME":"CSTP 1.2 (STC 1.2)","OBJECT_ID":"2023-091W","EPOCH":"2026-03-09T23:12:27.821952","MEAN_MOTION":15.2718076,"ECCENTRICITY":0.00204388,"INCLINATION":97.5258,"RA_OF_ASC_NODE":134.3262,"ARG_OF_PERICENTER":84.9592,"MEAN_ANOMALY":275.3979,"EPHEMERIS_TYPE":0,"CLASSIFICATION_TYPE":"U","NORAD_CAT_ID":57186,"ELEMENT_SET_NO":999,"REV_AT_EPOCH":14930,"BSTAR":0.00043035718,"MEAN_MOTION_DOT":0.00011466,"MEAN_MOTION_DDOT":0},{"OBJECT_NAME":"STARLINK-32153","OBJECT_ID":"2024-136B","EPOCH":"2026-03-09T06:06:40.538304","MEAN_MOTION":15.30196127,"ECCENTRICITY":0.00010573,"INCLINATION":53.1608,"RA_OF_ASC_NODE":77.9952,"ARG_OF_PERICENTER":93.8026,"MEAN_ANOMALY":266.3095,"EPHEMERIS_TYPE":0,"CLASSIFICATION_TYPE":"U","NORAD_CAT_ID":60330,"ELEMENT_SET_NO":999,"REV_AT_EPOCH":8959,"BSTAR":2.5097771e-5,"MEAN_MOTION_DOT":3.84e-6,"MEAN_MOTION_DDOT":0}]
